<?xml version="1.0" encoding="UTF-8"?>
<kml xmlns="http://www.opengis.net/kml/2.2" xmlns:gx="http://www.google.com/kml/ext/2.2">
    <Document id="1">
        <Placemark id="3">
            <name>Location 1</name>
            <Point id="2">
                <coordinates>144.8567879816271,-37.42277804382341,0.0</coordinates>
            </Point>
        </Placemark>
        <Placemark id="5">
            <name>Location 2</name>
            <Point id="4">
                <coordinates>142.4357677725014,-38.0569169391843,0.0</coordinates>
            </Point>
        </Placemark>
        <Placemark id="7">
            <name>Location 3</name>
            <Point id="6">
                <coordinates>143.9329094555584,-37.80217469906655,0.0</coordinates>
            </Point>
        </Placemark>
        <Placemark id="9">
            <name>Location 4</name>
            <Point id="8">
                <coordinates>142.2754454646221,-38.0682499155867,0.0</coordinates>
            </Point>
        </Placemark>
        <Placemark id="11">
            <name>Location 5</name>
            <Point id="10">
                <coordinates>141.756352258091,-34.52324587244343,0.0</coordinates>
            </Point>
        </Placemark>
        <Placemark id="13">
            <name>Location 6</name>
            <Point id="12">
                <coordinates>145.513859306511,-36.74357572393437,0.0</coordinates>
            </Point>
        </Placemark>
        <Placemark id="15">
            <name>Location 7</name>
            <Point id="14">
                <coordinates>144.745994150535,-37.89721189352699,0.0</coordinates>
            </Point>
        </Placemark>
        <Placemark id="17">
            <name>Location 8</name>
            <Point id="16">
                <coordinates>145.8966329539992,-37.00702150480869,0.0</coordinates>
            </Point>
        </Placemark>
    </Document>
</kml>
